CZ-4B R/B               
1 28415U 04035C   25308.81451392  .00008004  00000+0  30409-3 0  9993
2 28415  97.3661 339.6789 0035450  53.1144 307.3335 15.26476678160849
CZ-2C R/B               
1 28480U 04046B   25308.74287005  .00000175  00000+0  79818-4 0  9996
2 28480  98.1951 226.4899 0139816 163.8751 196.6948 14.26914780 90684
ARIANE 5 R/B            
1 28499U 04049H   25308.91832821  .00000908  00000+0  10715-3 0  9994
2 28499  98.2512 107.8518 0085478  36.1304 324.5643 14.84893784127272
CZ-2D R/B               
1 28738U 05024B   25308.93715408  .00023382  00000+0  40843-3 0  9993
2 28738  97.3664 315.4590 0008073 110.3036 249.9085 15.50642494120396
ALOS (DAICHI)           
1 28931U 06002A   25308.83406081  .00001749  00000+0  30462-3 0  9997
2 28931  98.1028 260.6060 0001471  51.7632 308.3706 14.69292543 55147
H-2A R/B                
1 28932U 06002B   25308.78349026  .00008956  00000+0  48595-3 0  9990
2 28932  98.2299  80.4715 0054956 306.2861  53.3299 15.13513116 75522
RESURS-DK 1             
1 29228U 06021A   25308.19502816  .00003119  00000+0  18816-3 0  9992
2 29228  69.9339 201.4233 0007348 290.0643  69.9731 15.11842146 68557
CZ-4B R/B               
1 29507U 06046C   25308.87218656  .00005460  00000+0  28945-3 0  9995
2 29507  97.5796 349.1160 0033899 342.3602  17.6450 15.15304447 41130
CZ-2C R/B               
1 31114U 07010B   25308.74455877  .00000137  00000+0  82077-4 0  9991
2 31114  98.3956  63.3123 0057961 298.0140  61.5181 14.20185993961989
COSMO-SKYMED 1          
1 31598U 07023A   25308.98634167  .00003531  00000+0  32545-3 0  9993
2 31598  97.8848 134.1465 0001172  90.9789 269.1566 14.95341864996250
COSMOS 2428             
1 31792U 07029A   25308.86147024 -.00000248  00000+0 -10774-3 0  9997
2 31792  70.9363 105.4020 0001860  98.3782 261.7550 14.12891181946467
SL-16 R/B               
1 31793U 07029B   25308.79380286  .00000047  00000+0  49386-4 0  9996
2 31793  70.9745  74.9181 0002234 258.0715 254.0326 14.14803459947704
KORONAS-FOTON           
1 33504U 09003A   25308.69215674  .00013893  00000+0  34735-3 0  9993
2 33504  82.4341  45.4846 0010699 243.3820 116.6330 15.39933919926488
CZ-2C R/B               
1 37731U 11030B   25308.88055692  .00001846  00000+0  24094-3 0  9997
2 37731  97.8349 263.8439 0054162  37.8898 341.3620 14.80690804771621
H-2A R/B                
1 38341U 12025E   25308.80525433  .00004251  00000+0  39672-3 0  9998
2 38341  98.4529 261.1350 0045725   3.0597 357.0892 14.94026765729560
SHIJIAN-16 (SJ-16)      
1 39358U 13057A   25308.91518572  .00002330  00000+0  23340-3 0  9992
2 39358  74.9739  61.2095 0016126  52.7999 307.4657 14.91776617652890
SL-4 R/B                
1 39679U 14021B   25308.81432221  .00016429  00000+0  40433-3 0  9991
2 39679  51.6078 224.7177 0104831   9.6613 350.6352 15.35216713637065
ALOS-2                  
1 39766U 14029A   25308.93624940  .00002051  00000+0  28146-3 0  9993
2 39766  97.9239  44.3199 0001224 101.5232 258.6117 14.79467775618423
YAOGAN-29               
1 41038U 15069A   25308.96406757  .00000525  00000+0  71651-4 0  9994
2 41038  98.0261 332.0069 0002545  61.6009 298.5461 14.82817085537391
ASTRO-H (HITOMI)        
1 41337U 16012A   25308.72645743  .00003504  00000+0  21035-3 0  9999
2 41337  30.9992  82.3635 0009882 155.6789 204.4316 15.08999274533338
HXMT (HUIYAN)           
1 42758U 17034A   25308.97116899  .00006077  00000+0  32204-3 0  9992
2 42758  43.0153 349.1250 0032681 169.0800 191.0764 15.15616547463600
CZ-2C R/B               
1 43521U 18054D   25308.64303378  .00080507  00000+0  74390-3 0  9990
2 43521  35.1352  77.6247 0024723 134.3255 225.9507 15.65926967409065
SAOCOM 1A               
1 43641U 18076A   25309.00104100  .00000525  00000+0  72496-4 0  9998
2 43641  97.8871 133.9694 0001353  90.7480 269.3889 14.82147374382891
H-2A R/B                
1 43682U 18084L   25308.78912154  .00016654  00000+0  47866-3 0  9994
2 43682  98.8802 135.0595 0029361  95.0249 265.4342 15.35492279386570
SAOCOM 1B               
1 46265U 20059A   25309.09981551  .00000537  00000+0  74083-4 0  9996
2 46265  97.8863 133.1697 0001432  91.0331 269.1046 14.82126849280297
CSS (TIANHE)            
1 48274U 21035A   25308.86414658  .00028084  00000+0  33527-3 0  9990
2 48274  41.4668 246.7216 0006228 323.7739  36.2677 15.60384612258110
COSMOS 2550             
1 48865U 21056A   25308.90566235  .00005857  00000+0  18372-3 0  9997
2 48865  67.1440  58.4285 0008432 269.8077  90.2111 15.33829983244323
CZ-2C R/B               
1 52794U 22058K   25308.83101609  .00026972  00000+0  52751-3 0  9998
2 52794  50.1916 236.4943 0049856  40.6239 319.8431 15.45834368190767
GSLV R/B                
1 54149U 22138AN  25308.72791593  .00003626  00000+0  32145-3 0  9994
2 54149  87.3859 208.1935 0019153 243.2931 116.6340 14.95810039165245
XRISM                   
1 57800U 23137A   25308.89282190  .00006547  00000+0  38997-3 0  9993
2 57800  31.0033   9.7955 0008239 222.6353 137.3646 15.09740316118907
ACS3                    
1 59588U 24077B   25308.95051237  .00022930  00000+0  20789-1 0  9997
2 59588  97.3286 272.9276 0041512  30.6442 329.7130 13.83078401 76912
